{
  "links" : {
    "next" : "https://api.nasa.gov/neo/rest/v1/feed?start_date=2014-01-23&end_date=2014-01-23&detailed=true&api_key=t0TVs3DtDT2H8Oy2Zy8m2eVrNsAVKAexjcZXUckd",
    "prev" : "https://api.nasa.gov/neo/rest/v1/feed?start_date=2014-01-21&end_date=2014-01-21&detailed=true&api_key=t0TVs3DtDT2H8Oy2Zy8m2eVrNsAVKAexjcZXUckd",
    "self" : "https://api.nasa.gov/neo/rest/v1/feed?start_date=2014-01-22&end_date=2014-01-22&detailed=true&api_key=t0TVs3DtDT2H8Oy2Zy8m2eVrNsAVKAexjcZXUckd"
  },
  "element_count" : 7,
  "near_earth_objects" : {
    "2014-01-22" : [ {
      "links" : {
        "self" : "https://api.nasa.gov/neo/rest/v1/neo/3145497?api_key=t0TVs3DtDT2H8Oy2Zy8m2eVrNsAVKAexjcZXUckd"
      },
      "neo_reference_id" : "3145497",
      "name" : "(2002 YO2)",
      "nasa_jpl_url" : "http://ssd.jpl.nasa.gov/sbdb.cgi?sstr=3145497",
      "absolute_magnitude_h" : 22.7,
      "estimated_diameter" : {
        "kilometers" : {
          "estimated_diameter_min" : 0.0766575574,
          "estimated_diameter_max" : 0.1714115092
        },
        "meters" : {
          "estimated_diameter_min" : 76.6575573531,
          "estimated_diameter_max" : 171.4115092306
        },
        "miles" : {
          "estimated_diameter_min" : 0.0476327831,
          "estimated_diameter_max" : 0.1065101409
        },
        "feet" : {
          "estimated_diameter_min" : 251.5011804664,
          "estimated_diameter_max" : 562.3737359442
        }
      },
      "is_potentially_hazardous_asteroid" : false,
      "close_approach_data" : [ {
        "close_approach_date" : "2014-01-22",
        "epoch_date_close_approach" : 1390377600000,
        "relative_velocity" : {
          "kilometers_per_second" : "9.1854288401",
          "kilometers_per_hour" : "33067.5438243637",
          "miles_per_hour" : "20546.885772422"
        },
        "miss_distance" : {
          "astronomical" : "0.2767962023",
          "lunar" : "107.6737213135",
          "kilometers" : "41408120",
          "miles" : "25729814"
        },
        "orbiting_body" : "Earth"
      } ],
      "orbital_data" : {
        "orbit_id" : "16",
        "orbit_determination_date" : "2017-04-06 09:14:29",
        "orbit_uncertainty" : "5",
        "minimum_orbit_intersection" : ".0773558",
        "jupiter_tisserand_invariant" : "4.486",
        "epoch_osculation" : "2458000.5",
        "eccentricity" : ".2949690094163254",
        "semi_major_axis" : "1.50129959143864",
        "inclination" : "6.43592429100904",
        "ascending_node_longitude" : "278.716142758945",
        "orbital_period" : "671.8920098537423",
        "perihelion_distance" : "1.05846273811485",
        "perihelion_argument" : "187.6983900718917",
        "aphelion_distance" : "1.94413644476243",
        "perihelion_time" : "2458022.947631906370",
        "mean_anomaly" : "347.9725501006442",
        "mean_motion" : ".535800388634425",
        "equinox" : "J2000"
      }
    }, {
      "links" : {
        "self" : "https://api.nasa.gov/neo/rest/v1/neo/3624753?api_key=t0TVs3DtDT2H8Oy2Zy8m2eVrNsAVKAexjcZXUckd"
      },
      "neo_reference_id" : "3624753",
      "name" : "(2013 BQ18)",
      "nasa_jpl_url" : "http://ssd.jpl.nasa.gov/sbdb.cgi?sstr=3624753",
      "absolute_magnitude_h" : 25.3,
      "estimated_diameter" : {
        "kilometers" : {
          "estimated_diameter_min" : 0.0231502122,
          "estimated_diameter_max" : 0.0517654482
        },
        "meters" : {
          "estimated_diameter_min" : 23.150212221,
          "estimated_diameter_max" : 51.7654482198
        },
        "miles" : {
          "estimated_diameter_min" : 0.0143848705,
          "estimated_diameter_max" : 0.0321655483
        },
        "feet" : {
          "estimated_diameter_min" : 75.9521422633,
          "estimated_diameter_max" : 169.8341531374
        }
      },
      "is_potentially_hazardous_asteroid" : false,
      "close_approach_data" : [ {
        "close_approach_date" : "2014-01-22",
        "epoch_date_close_approach" : 1390377600000,
        "relative_velocity" : {
          "kilometers_per_second" : "13.9831610672",
          "kilometers_per_hour" : "50339.3798420114",
          "miles_per_hour" : "31278.9329912765"
        },
        "miss_distance" : {
          "astronomical" : "0.2502724512",
          "lunar" : "97.3559875488",
          "kilometers" : "37440228",
          "miles" : "23264278"
        },
        "orbiting_body" : "Earth"
      } ],
      "orbital_data" : {
        "orbit_id" : "4",
        "orbit_determination_date" : "2017-04-06 08:47:05",
        "orbit_uncertainty" : "8",
        "minimum_orbit_intersection" : ".0105476",
        "jupiter_tisserand_invariant" : "5.862",
        "epoch_osculation" : "2456311.5",
        "eccentricity" : ".1477902402619962",
        "semi_major_axis" : "1.024963192643909",
        "inclination" : "26.50315577031119",
        "ascending_node_longitude" : "117.2702673741715",
        "orbital_period" : "379.0188691564111",
        "perihelion_distance" : ".8734836361433629",
        "perihelion_argument" : "89.031231952921",
        "aphelion_distance" : "1.176442749144455",
        "perihelion_time" : "2456386.819956662836",
        "mean_anomaly" : "288.4595396029446",
        "mean_motion" : ".9498207854433693",
        "equinox" : "J2000"
      }
    }, {
      "links" : {
        "self" : "https://api.nasa.gov/neo/rest/v1/neo/3644727?api_key=t0TVs3DtDT2H8Oy2Zy8m2eVrNsAVKAexjcZXUckd"
      },
      "neo_reference_id" : "3644727",
      "name" : "(2013 NJ4)",
      "nasa_jpl_url" : "http://ssd.jpl.nasa.gov/sbdb.cgi?sstr=3644727",
      "absolute_magnitude_h" : 27.4,
      "estimated_diameter" : {
        "kilometers" : {
          "estimated_diameter_min" : 0.0088014652,
          "estimated_diameter_max" : 0.0196806745
        },
        "meters" : {
          "estimated_diameter_min" : 8.801465209,
          "estimated_diameter_max" : 19.6806745089
        },
        "miles" : {
          "estimated_diameter_min" : 0.0054689752,
          "estimated_diameter_max" : 0.0122290004
        },
        "feet" : {
          "estimated_diameter_min" : 28.8761991163,
          "estimated_diameter_max" : 64.5691441559
        }
      },
      "is_potentially_hazardous_asteroid" : false,
      "close_approach_data" : [ {
        "close_approach_date" : "2014-01-22",
        "epoch_date_close_approach" : 1390377600000,
        "relative_velocity" : {
          "kilometers_per_second" : "5.7316756087",
          "kilometers_per_hour" : "20634.0321912342",
          "miles_per_hour" : "12821.1851690477"
        },
        "miss_distance" : {
          "astronomical" : "0.2896818679",
          "lunar" : "112.6862487793",
          "kilometers" : "43335792",
          "miles" : "26927614"
        },
        "orbiting_body" : "Earth"
      } ],
      "orbital_data" : {
        "orbit_id" : "6",
        "orbit_determination_date" : "2017-04-06 08:45:27",
        "orbit_uncertainty" : "6",
        "minimum_orbit_intersection" : ".00462406",
        "jupiter_tisserand_invariant" : "5.505",
        "epoch_osculation" : "2458000.5",
        "eccentricity" : ".2025260931215898",
        "semi_major_axis" : "1.133212190280065",
        "inclination" : "1.319409478319459",
        "ascending_node_longitude" : "115.6066312340776",
        "orbital_period" : "440.6210929695413",
        "perihelion_distance" : ".9037071527048837",
        "perihelion_argument" : "238.5247930774831",
        "aphelion_distance" : "1.362717227855246",
        "perihelion_time" : "2457862.649448820552",
        "mean_anomaly" : "112.6278319772396",
        "mean_motion" : ".8170285212035585",
        "equinox" : "J2000"
      }
    } ]
  }
}